HELIOS 2A               
1 28492U 04049A   22211.54591916  .00001210  00000+0  12157-3 0  9992
2 28492  98.2359 156.5874 0012919 303.0358  56.9587 14.93239442941558
CFESAT                  
1 30777U 07006F   22211.15482883  .00041638  00000+0  46374-3 0  9992
2 30777  35.4192  15.1415 0005061  57.3524 302.7698 15.61758815855757
SPIRALE A               
1 33751U 09008C   22211.32948191  .00000053  00000+0  27694-3 0  9999
2 33751   2.0080 215.5368 5435718 325.6724   8.8231  4.58854815196784
SPIRALE B               
1 33752U 09008D   22210.74194818  .00005898  00000+0  94187-3 0  9997
2 33752   2.0589  89.0833 6869930 200.3014 107.3857  2.82466451126275
SAPPHIRE                
1 39088U 13009C   22211.24933495  .00000017  00000+0  21271-4 0  9992
2 39088  98.4260  45.9369 0012022 144.6891 215.5093 14.34312859493253
